{
  "58549": {
    "noradId": "58549",
    "tle": [
      "1 58549C 23192U   26079.41090278  .00048293  00000+0  16260-2 0   794",
      "2 58549  53.1611  13.2160 0000928  83.6608 251.0643 15.30176208    18"
    ]
  },
  "58550": {
    "noradId": "58550",
    "tle": [
      "1 58550C 23192V   26079.60812500 -.00013486  00000+0 -45443-3 0   791",
      "2 58550  53.1597  11.8463 0001223  90.2110 124.2086 15.30210854    12"
    ]
  },
  "58551": {
    "noradId": "58551",
    "tle": [
      "1 58551C 23192W   26079.67895833 -.00023756  00000+0 -80053-3 0   796",
      "2 58551  53.1606   1.7311 0001293  85.8770  18.9697 15.30220311    19"
    ]
  },
  "58552": {
    "noradId": "58552",
    "tle": [
      "1 58552C 23192X   26079.87131944 -.00038413  00000+0 -12947-2 0   797",
      "2 58552  53.1609  11.1570 0001327  91.3140 220.4032 15.30229619    19"
    ]
  },
  "58589": {
    "noradId": "58589",
    "tle": [
      "1 58589C 23200A   26079.69562500 -.00006288  00000+0 -23362-3 0   792",
      "2 58589  42.9990 106.6706 0001280 266.6037 111.3936 15.26747063    13"
    ]
  },
  "58590": {
    "noradId": "58590",
    "tle": [
      "1 58590C 23200B   26079.40673611 -.00001662  00000+0 -61761-4 0   796",
      "2 58590  42.9995 111.3305 0001122 259.2193 136.1210 15.26742655    16"
    ]
  },
  "58592": {
    "noradId": "58592",
    "tle": [
      "1 58592C 23200D   26079.89076389  .00052859  00000+0  21020-2 0   794",
      "2 58592  43.0000 106.5403 0001315  90.4538 243.3950 15.24435877    19"
    ]
  },
  "58593": {
    "noradId": "58593",
    "tle": [
      "1 58593C 23200E   26079.41715278  .00049349  00000+0  18354-2 0   796",
      "2 58593  43.0015 108.0838 0001656 271.0962  92.0753 15.26659568    18"
    ]
  },
  "58594": {
    "noradId": "58594",
    "tle": [
      "1 58594C 23200F   26079.59423611  .00008716  00000+0  32383-3 0   795",
      "2 58594  43.0024 106.8247 0001377 270.3259  92.2353 15.26734155    14"
    ]
  },
  "58595": {
    "noradId": "58595",
    "tle": [
      "1 58595C 23200G   26079.68729167 -.00016718  00000+0 -62121-3 0   797",
      "2 58595  42.9990 106.7102 0001401 265.5395  78.6049 15.26754957    11"
    ]
  },
  "58596": {
    "noradId": "58596",
    "tle": [
      "1 58596C 23200H   26079.68520833 -.00004451  00000+0 -16114-3 0   799",
      "2 58596  43.0028 310.0352 0001463 263.7146  61.0385 15.27598294    15"
    ]
  },
  "58597": {
    "noradId": "58597",
    "tle": [
      "1 58597C 23200J   26079.60743056  .00008296  00000+0  30820-3 0   795",
      "2 58597  43.0005 106.6521 0001373 266.5395 210.6822 15.26736720    10"
    ]
  },
  "58598": {
    "noradId": "58598",
    "tle": [
      "1 58598C 23200K   26079.67965278  .00124250  00000+0  28073-2 0   790",
      "2 58598  42.9845  77.2221 0026951 108.3026  35.3647 15.41807420    14"
    ]
  },
  "58600": {
    "noradId": "58600",
    "tle": [
      "1 58600C 23200M   26079.11645833  .00010698  00000+0  39744-3 0   793",
      "2 58600  43.0030 109.6099 0001540 265.2335 312.5359 15.26732532    16"
    ]
  },
  "58601": {
    "noradId": "58601",
    "tle": [
      "1 58601C 23200N   26079.86298611  .00230560  00000+0  83783-2 0   797",
      "2 58601  43.0016 105.5304 0001463 274.4633  35.5495 15.27242408    14"
    ]
  },
  "58602": {
    "noradId": "58602",
    "tle": [
      "1 58602C 23200P   26079.68173611 -.00022973  00000+0 -83206-3 0   790",
      "2 58602  43.0019 306.6061 0001510 267.1022  14.7808 15.27602110    13"
    ]
  },
  "58603": {
    "noradId": "58603",
    "tle": [
      "1 58603C 23200Q   26079.86159722  .00008405  00000+0  31225-3 0   794",
      "2 58603  43.0022 105.3274 0001308 259.8859 126.0234 15.26734852    17"
    ]
  },
  "58604": {
    "noradId": "58604",
    "tle": [
      "1 58604C 23200R   26079.60743056  .00008977  00000+0  33347-3 0   797",
      "2 58604  43.0015 106.9801 0001540 268.7792  64.4946 15.26738577    19"
    ]
  },
  "58605": {
    "noradId": "58605",
    "tle": [
      "1 58605C 23200S   26079.68798611 -.00081778  00000+0 -31144-2 0   797",
      "2 58605  42.9999 106.5991 0001056 289.3744 101.4081 15.26007033    11"
    ]
  },
  "58606": {
    "noradId": "58606",
    "tle": [
      "1 58606C 23200T   26079.68520833 -.00010912  00000+0 -40521-3 0   799",
      "2 58606  43.0025 106.5025 0001689 269.9348 153.8616 15.26768439    17"
    ]
  },
  "58607": {
    "noradId": "58607",
    "tle": [
      "1 58607C 23200U   26079.11506944 -.00009231  00000+0 -34298-3 0   791",
      "2 58607  42.9990 109.9146 0001364 269.2162 172.7810 15.26750412    13"
    ]
  },
  "58608": {
    "noradId": "58608",
    "tle": [
      "1 58608C 23200V   26079.68451389  .00001505  00000+0  55907-4 0   791",
      "2 58608  42.9991 106.6805 0001362 270.9014  73.6364 15.26743048    14"
    ]
  },
  "58609": {
    "noradId": "58609",
    "tle": [
      "1 58609C 23200W   26079.95673611  .00012432  00000+0  46234-3 0   799",
      "2 58609  42.9995 105.2952 0001399 265.3172  72.1158 15.26697872    18"
    ]
  },
  "58610": {
    "noradId": "58610",
    "tle": [
      "1 58610C 23200X   26079.41645833  .00012701  00000+0  47197-3 0   795",
      "2 58610  42.9994 108.2789 0000936 264.3898 345.4556 15.26723355    14"
    ]
  },
  "58611": {
    "noradId": "58611",
    "tle": [
      "1 58611C 23200Y   26079.69006944 -.00007952  00000+0 -28803-3 0   797",
      "2 58611  42.9998 106.8630 0001249 265.1551  16.8380 15.27585205    16"
    ]
  },
  "58619": {
    "noradId": "58619",
    "tle": [
      "1 58619C 23203B   26079.96159722 -.00025040  00000+0 -90696-3 0   798",
      "2 58619  43.0033   3.5825 0001425 264.3239  94.4677 15.27603270    19"
    ]
  },
  "58621": {
    "noradId": "58621",
    "tle": [
      "1 58621C 23203D   26079.86229167 -.00028249  00000+0 -10232-2 0   792",
      "2 58621  43.0042   4.4275 0001570 268.2513 143.5053 15.27604653    10"
    ]
  },
  "58622": {
    "noradId": "58622",
    "tle": [
      "1 58622C 23203E   26079.88312500 -.00032473  00000+0 -11762-2 0   792",
      "2 58622  43.0033   3.9742 0001445 265.5460  42.4109 15.27609309    18"
    ]
  },
  "58623": {
    "noradId": "58623",
    "tle": [
      "1 58623C 23203F   26079.96506944 -.00016717  00000+0 -60548-3 0   799",
      "2 58623  43.0036   3.4597 0001510 265.5078 154.8487 15.27594491    15"
    ]
  },
  "58624": {
    "noradId": "58624",
    "tle": [
      "1 58624C 23203G   26079.58243056 -.00015037  00000+0 -54455-3 0   794",
      "2 58624  43.0033   5.5862 0001360 262.8850 224.8953 15.27599450    18"
    ]
  },
  "58625": {
    "noradId": "58625",
    "tle": [
      "1 58625C 23203H   26079.59909722 -.00017106  00000+0 -61948-3 0   799",
      "2 58625  43.0030   5.4406 0001367 265.0971 335.6716 15.27600099    15"
    ]
  },
  "58626": {
    "noradId": "58626",
    "tle": [
      "1 58626C 23203J   26079.11854167  .00007806  00000+0  28281-3 0   797",
      "2 58626  43.0031   7.8184 0001545 267.0302 349.4415 15.27562088    18"
    ]
  },
  "58627": {
    "noradId": "58627",
    "tle": [
      "1 58627C 23203K   26079.69145833 -.00017800  00000+0 -64481-3 0   793",
      "2 58627  43.0014   4.7440 0001330 269.9022 197.2033 15.27591285    19"
    ]
  },
  "58628": {
    "noradId": "58628",
    "tle": [
      "1 58628C 23203L   26079.68798611 -.00018383  00000+0 -66579-3 0   798",
      "2 58628  43.0023   4.8866 0001404 268.4521 122.9418 15.27599593    15"
    ]
  },
  "58629": {
    "noradId": "58629",
    "tle": [
      "1 58629C 23203M   26079.85812500  .00092073  00000+0  33364-2 0   793",
      "2 58629  43.0035   7.6633 0001488 268.5216 214.9268 15.27472328    17"
    ]
  },
  "58630": {
    "noradId": "58630",
    "tle": [
      "1 58630C 23203N   26079.42062500  .00011011  00000+0  39880-3 0   798",
      "2 58630  43.0036  10.0823 0001348 267.8264 348.1257 15.27569253    11"
    ]
  },
  "58631": {
    "noradId": "58631",
    "tle": [
      "1 58631C 23203P   26079.11993056  .00011565  00000+0  41891-3 0   793",
      "2 58631  43.0037  11.9834 0001346 270.4839  45.0262 15.27564789    19"
    ]
  },
  "58632": {
    "noradId": "58632",
    "tle": [
      "1 58632C 23203Q   26079.68868056 -.00005094  00000+0 -18461-3 0   796",
      "2 58632  43.0032   8.4494 0001399 278.9448  62.4151 15.27567881    11"
    ]
  },
  "58633": {
    "noradId": "58633",
    "tle": [
      "1 58633C 23203R   26079.40743056  .00012414  00000+0  44956-3 0   799",
      "2 58633  43.0039  10.4605 0001473 268.4848 147.4680 15.27571229    19"
    ]
  },
  "58634": {
    "noradId": "58634",
    "tle": [
      "1 58634C 23203S   26079.69284722 -.00016649  00000+0 -60299-3 0   795",
      "2 58634  43.0032   4.5640 0001535 265.5684 244.6158 15.27597384    11"
    ]
  },
  "58635": {
    "noradId": "58635",
    "tle": [
      "1 58635C 23203T   26079.95187500 -.00025555  00000+0 -92566-3 0   799",
      "2 58635  43.0038   3.7914 0001322 267.2602 334.3323 15.27602352    19"
    ]
  },
  "58636": {
    "noradId": "58636",
    "tle": [
      "1 58636C 23203U   26079.88104167 -.00032678  00000+0 -11836-2 0   794",
      "2 58636  43.0039   4.2256 0001385 267.8550 289.5784 15.27610064    14"
    ]
  },
  "58637": {
    "noradId": "58637",
    "tle": [
      "1 58637C 23203V   26079.87270833  .00017898  00000+0  64867-3 0   796",
      "2 58637  43.0036   4.1878 0001618 263.7982 283.2016 15.27540344    16"
    ]
  },
  "58638": {
    "noradId": "58638",
    "tle": [
      "1 58638C 23203W   26079.85881944 -.00037147  00000+0 -13455-2 0   793",
      "2 58638  43.0034   4.2156 0001399 265.5667 226.1123 15.27615716    12"
    ]
  },
  "58639": {
    "noradId": "58639",
    "tle": [
      "1 58639C 23203X   26079.39354167  .00014463  00000+0  52376-3 0   795",
      "2 58639  43.0041   7.0267 0001488 267.8033 104.3667 15.27568597    10"
    ]
  }
}